BEIDOU 3 (C01)          
1 36287U 10001A   22210.93795943 -.00000279  00000+0  00000+0 0  9991
2 36287   1.9534  49.3459 0003815  35.2808 341.0500  1.00270829 45941
BEIDOU 5 (C06)          
1 36828U 10036A   22210.85465847 -.00000114  00000+0  00000+0 0  9996
2 36828  54.2008 175.8397 0030787 190.7892 355.5547  1.00286741 44000
BEIDOU 6 (C04)          
1 37210U 10057A   22210.87011755 -.00000111  00000+0  00000+0 0  9999
2 37210   0.9251  52.0649 0005102 131.6101 236.9412  1.00270413 43067
BEIDOU 7 (C07)          
1 37256U 10068A   22210.85969495 -.00000169  00000+0  00000+0 0  9995
2 37256  50.1366 289.1431 0023199 198.9761 235.0150  1.00293933 42573
BEIDOU 8 (C08)          
1 37384U 11013A   22210.55302225 -.00000153  00000+0  00000+0 0  9990
2 37384  60.3536  53.8382 0022617 177.1987  20.9515  1.00296096 41445
BEIDOU 9 (C09)          
1 37763U 11038A   22210.88313421 -.00000069  00000+0  00000+0 0  9990
2 37763  54.4845 178.3361 0099040 228.3928 314.4453  1.00272086 40423
BEIDOU 10 (C10)         
1 37948U 11073A   22210.90339647 -.00000125  00000+0  00000+0 0  9998
2 37948  50.2527 288.7854 0084982 218.2535 221.0914  1.00284828 39186
BEIDOU 11 (C05)         
1 38091U 12008A   22210.19841144  .00000058  00000+0  00000+0 0  9992
2 38091   1.6526  68.6086 0013972 341.0449  27.3154  1.00276143 38258
BEIDOU 12 (C11)         
1 38250U 12018A   22210.58262772 -.00000091  00000+0  00000+0 0  9995
2 38250  56.6828 352.1682 0020717 250.1520 126.2598  1.86234279 69879
BEIDOU 13 (C12)         
1 38251U 12018B   22210.51519455 -.00000091  00000+0  00000+0 0  9992
2 38251  56.5997 351.4929 0011512 250.3285 125.0677  1.86234103 69876
BEIDOU 15 (C14)         
1 38775U 12050B   22210.46189799 -.00000016  00000+0  00000+0 0  9994
2 38775  55.4237 110.2715 0014097 327.8297 207.9389  1.86231359 67249
BEIDOU 16 (C02)         
1 38953U 12059A   22210.65939166 -.00000175  00000+0  00000+0 0  9999
2 38953   2.0898  84.2361 0010407 305.0631 239.3867  1.00275085 35689
BEIDOU 17 (C31)         
1 40549U 15019A   22210.86377494 -.00000165  00000+0  00000+0 0  9994
2 40549  51.8146 312.2648 0037463 194.3564 206.3715  1.00288342 26864
BEIDOU 18 (C57)         
1 40748U 15037A   22210.62661078 -.00000092  00000+0  00000+0 0  9992
2 40748  55.8520 350.3294 0003753  56.0700 303.3928  1.86233318 47691
BEIDOU 19 (C58)         
1 40749U 15037B   22210.44876329 -.00000093  00000+0  00000+0 0  9991
2 40749  55.8543 350.3256 0002573 353.6674  20.8977  1.86232145 47692
BEIDOU 20 (C18)         
1 40938U 15053A   22210.47761690 -.00000093  00000+0  00000+0 0  9996
2 40938  51.4336 275.3919 0046168 198.1647 101.4951  1.00283840 25122
BEIDOU IGSO-6 (C13)     
1 41434U 16021A   22210.90270303 -.00000135  00000+0  00000+0 0  9995
2 41434  58.1611  52.3935 0043795 215.9525 100.3576  1.00274789 23256
BEIDOU-2 G7 (C03)       
1 41586U 16037A   22210.85018031 -.00000352  00000+0  00000+0 0  9993
2 41586   1.4640  66.6112 0008194   0.4137 297.0507  1.00269350 22561
BEIDOU-3 M1 (C19)       
1 43001U 17069A   22210.90253635 -.00000012  00000+0  00000+0 0  9993
2 43001  55.5761 110.2627 0010330 298.0960 329.4074  1.86231739 32182
BEIDOU-3 M2 (C20)       
1 43002U 17069B   22210.83622803 -.00000013  00000+0  00000+0 0  9994
2 43002  55.5754 110.3006 0008802 320.1470 305.8649  1.86231296 32174
BEIDOU-3 M3 (C27)       
1 43107U 18003A   22210.76765478 -.00000092  00000+0  00000+0 0  9994
2 43107  55.3029 351.2233 0005170  67.2458 318.9786  1.86232487 30944
BEIDOU-3 M4 (C28)       
1 43108U 18003B   22210.69885971 -.00000092  00000+0  00000+0 0  9998
2 43108  55.2958 351.2145 0002175 232.3586 151.3971  1.86230915 30945
BEIDOU-3 M5 (C21)       
1 43207U 18018A   22209.49744841 -.00000027  00000+0  00000+0 0  9998
2 43207  55.5347 110.4228 0006435 343.2946  16.7222  1.86231644 30305
BEIDOU-3 M6 (C22)       
1 43208U 18018B   22210.10106891 -.00000020  00000+0  00000+0 0  9999
2 43208  55.5347 110.4075 0008487 309.6844  50.2857  1.86231506 30313
BEIDOU-3 M7 (C29)       
1 43245U 18029A   22210.38451770 -.00000094  00000+0  00000+0 0  9992
2 43245  55.2142 349.0027 0001041 111.1067 288.6953  1.86232646 29478
BEIDOU-3 M8 (C30)       
1 43246U 18029B   22210.84904597 -.00000091  00000+0  10000-3 0  9996
2 43246  55.2118 349.0162 0003647  14.7101  23.1026  1.86232867 29471
BEIDOU IGSO-7 (C16)     
1 43539U 18057A   22210.90133721 -.00000119  00000+0  00000+0 0  9998
2 43539  55.0926 175.3556 0052872 229.1258 338.7454  1.00297706 14931
BEIDOU-3 M9 (C23)       
1 43581U 18062A   22210.59427465  .00000066  00000+0  00000+0 0  9997
2 43581  54.2660 230.6429 0005723 268.4423 169.6923  1.86231908 27214
BEIDOU-3 M10 (C24)      
1 43582U 18062B   22210.48652196  .00000066  00000+0  00000+0 0  9997
2 43582  54.2659 230.6348 0004582 334.3561 123.3503  1.86232363 27218
BEIDOU-3 M11 (C25)      
1 43602U 18067A   22210.51926493  .00000066  00000+0  00000+0 0  9993
2 43602  54.3477 229.2525 0006545   0.5682 160.4321  1.86231623 26709
BEIDOU-3 M12 (C26)      
1 43603U 18067B   22210.58279520  .00000066  00000+0  00000+0 0  9993
2 43603  54.3448 229.2165 0003950 342.0774 131.8838  1.86231608 26721
BEIDOU-3 M13 (C32)      
1 43622U 18072A   22210.76731361 -.00000014  00000+0  00000+0 0  9990
2 43622  55.5020 109.9333 0006823 296.5280 330.3091  1.86231818 26235
BEIDOU-3 M14 (C33)      
1 43623U 18072B   22210.63259394 -.00000015  00000+0  00000+0 0  9999
2 43623  55.5047 109.9298 0005416 321.2570 305.4980  1.86231831 26235
BEIDOU-3 M15 (C34)      
1 43647U 18078A   22210.44258280 -.00000094  00000+0  10000-3 0  9995
2 43647  55.1095 349.1556 0005839  15.4798  19.4751  1.86233162 25740
BEIDOU-3 M16 (C35)      
1 43648U 18078B   22210.58248569 -.00000093  00000+0  00000+0 0  9994
2 43648  55.1057 349.1567 0004230  32.5005   3.9582  1.86232266 25762
BEIDOU-3 G1 (C59)       
1 43683U 18085A   22210.81299556 -.00000278  00000+0  00000+0 0  9994
2 43683   0.9325 159.1993 0004469  12.6750 208.2145  1.00267702 13838
BEIDOU-3 M17 (C36)      
1 43706U 18093A   22210.67915579  .00000066  00000+0  00000+0 0  9997
2 43706  54.3484 230.5268 0011287 272.4123  87.5110  1.86232078 25125
BEIDOU-3 M18 (C37)      
1 43707U 18093B   22210.81854983  .00000066  00000+0  00000+0 0  9995
2 43707  54.3479 230.5131 0009106 293.7082 250.9209  1.86232197 25112
BEIDOU-3 IGSO-1 (C38)   
1 44204U 19023A   22210.77385733 -.00000193  00000+0  00000+0 0  9991
2 44204  56.6205  52.5143 0022372 188.4333 102.1991  1.00297209 12136
BEIDOU-2 G8             
1 44231U 19027A   22210.93883144 -.00000245  00000+0  00000+0 0  9990
2 44231   0.9613  77.7951 0005356 110.8319 241.4555  1.00271376 11851
BEIDOU-3 IGSO-2 (C39)   
1 44337U 19035A   22210.80674337 -.00000130  00000+0  00000+0 0  9997
2 44337  55.1284 171.3477 0025952 194.5494 349.8913  1.00291946 11479
BEIDOU-3 M23 (C45)      
1 44542U 19061A   22210.61522088  .00000066  00000+0  00000+0 0  9995
2 44542  54.5746 230.6791 0008469 323.9539  36.0426  1.86231454 19376
BEIDOU-3 M24 (C46)      
1 44543U 19061B   22210.80057398  .00000066  00000+0  00000+0 0  9994
2 44543  54.5719 230.6428 0006052 307.6098  88.0181  1.86231683 19378
BEIDOU-3 IGSO-3         
1 44709U 19073A   22210.63452159 -.00000165  00000+0  10000-3 0  9992
2 44709  57.1977 295.9485 0027452 178.1603 179.2323  1.00295885 10219
BEIDOU-3 M21            
1 44793U 19078A   22210.82114869 -.00000092  00000+0  10000-3 0  9993
2 44793  54.9588 349.1597 0006066  23.2841 219.3000  1.86232273 18237
BEIDOU-3 M22            
1 44794U 19078B   22210.05451493 -.00000096  00000+0  00000+0 0  9995
2 44794  54.9321 349.1763 0003853  23.5463 336.7825  1.86232713 18229
BEIDOU-3 M19            
1 44864U 19090A   22210.74090366 -.00000014  00000+0  00000+0 0  9991
2 44864  55.4374 110.1431 0016895 274.0665  20.8908  1.86231953 17818
BEIDOU-3 M20            
1 44865U 19090B   22210.54343856 -.00000016  00000+0  00000+0 0  9997
2 44865  55.4387 110.1814 0014994 288.2205 324.2079  1.86232118 17783
BEIDOU-3 G2             
1 45344U 20017A   22210.67965854 -.00000137  00000+0  00000+0 0  9997
2 45344   2.0405 354.1155 0004837 128.3386 149.5833  1.00272608  9031
BEIDOU-3 G3             
1 45807U 20040A   22210.80321752 -.00000350  00000+0  00000+0 0  9992
2 45807   1.3481 304.3602 0006974 327.7764  74.8994  1.00266239  7864
